NORAD_CAT_ID,OBJECT_NAME,OBJECT_TYPE,EPOCH,MEAN_MOTION,ECCENTRICITY,INCLINATION,RA_OF_ASC_NODE,ARG_OF_PERICENTER,MEAN_ANOMALY,BSTAR,MEAN_MOTION_DOT,MEAN_MOTION_DDOT,TLE_LINE0,TLE_LINE1,TLE_LINE2,SEMIMAJOR_AXIS,PERIOD,APOGEE,PERIGEE,DECAYED
52876.0,STARLINK-4200,PAYLOAD,2022-10-11 22:00:00,15.08837585,0.0001656,53.2176,202.1172,53.2478,345.1615,-8.560299999999999e-05,-1.65e-05,0.0,0 STARLINK-4200,1 52876U 22062AY  22284.91667824 -.00001650  00000-0 -85603-4 0  9991,2 52876  53.2176 202.1172 0001656  53.2478 345.1615 15.08837585  1305,6917.888000000001,95.438,540.898,538.607,0.0
52876.0,STARLINK-4200,PAYLOAD,2022-10-12 14:00:01,15.08845687,0.0001721999999999,53.2153,199.1266,48.0157,13.5972,-0.002531,-0.0004035,0.0,0 STARLINK-4200,1 52876U 22062AY  22285.58334491 -.00040350  00000-0 -25310-2 0  9993,2 52876  53.2153 199.1266 0001722  48.0157  13.5972 15.08845687 18738,6917.863,95.437,540.919,538.5369999999998,0.0
52876.0,STARLINK-4200,PAYLOAD,2022-10-12 22:00:00,15.08808402,0.0001904,53.2167,197.6288,48.3153,24.886,0.0026701,0.00042426,0.0,0 STARLINK-4200,1 52876U 22062AY  22285.91667824  .00042426  00000-0  26701-2 0  9998,2 52876  53.2167 197.6288 0001904  48.3153  24.8860 15.08808402  1301,6917.977,95.44,541.159,538.525,0.0
52876.0,STARLINK-4200,PAYLOAD,2022-10-13 06:00:00,15.08848308,0.0002056999999999,53.2148,196.1366,45.5654,39.2465,-0.0015709,-0.00025208,0.0,0 STARLINK-4200,1 52876U 22062AY  22286.25001157 -.00025208  00000-0 -15709-2 0  9994,2 52876  53.2148 196.1366 0002057  45.5654  39.2465 15.08848308 18832,6917.855,95.437,541.143,538.297,0.0
52876.0,STARLINK-4200,PAYLOAD,2022-10-13 14:00:01,15.08741806,0.0001972,53.2165,194.6363,50.5645,45.8675,0.0079028,0.00127426,0.0,0 STARLINK-4200,1 52876U 22062AY  22286.58334491  .00127426  00000-0  79028-2 0  9997,2 52876  53.2165 194.6363 0001972  50.5645  45.8675 15.08741806  1307,6918.181,95.444,541.41,538.681,0.0
52876.0,STARLINK-4200,PAYLOAD,2022-10-13 22:00:00,15.08837033,0.0002144,53.2175,193.1391,52.7729,55.19,-4.1458e-05,-9.48e-06,0.0,0 STARLINK-4200,1 52876U 22062AY  22286.91667824 -.00000948  00000-0 -41458-4 0  9992,2 52876  53.2175 193.1391 0002144  52.7729  55.1900 15.08837033  1305,6917.889,95.438,541.238,538.271,0.0
52876.0,STARLINK-4200,PAYLOAD,2022-10-14 08:00:01,15.08879042,0.0001849,53.2154,191.2715,43.6814,168.9033,-0.012208,-0.00189713,0.0,0 STARLINK-4200,1 52876U 22062AY  22287.33335648 -.00189713  00000-0 -12208-1 0  9991,2 52876  53.2154 191.2715 0001849  43.6814 168.9033 15.08879042 19008,6917.761,95.435,540.905,538.347,0.0
52876.0,STARLINK-4200,PAYLOAD,2022-10-14 14:00:01,15.08699176,0.0001829,53.2168,190.1466,48.2592,82.9614,0.013168,0.00214915,0.0,0 STARLINK-4200,1 52876U 22062AY  22287.58334491  .00214915  00000-0  13168-1 0  9990,2 52876  53.2168 190.1466 0001829  48.2592  82.9614 15.08699176  1308,6918.311,95.446,541.441,538.911,0.0
52876.0,STARLINK-4200,PAYLOAD,2022-10-14 16:00:00,15.08804562,0.0001848,53.217,189.7718,51.6206,172.4402,0.0032729,0.00052135,0.0,0 STARLINK-4200,1 52876U 22062AY  22287.66667824  .00052135  00000-0  32729-2 0  9997,2 52876  53.2170 189.7718 0001848  51.6206 172.4402 15.08804562 19054,6917.989000000001,95.44,541.132,538.575,0.0
52876.0,STARLINK-4200,PAYLOAD,2022-10-14 22:00:00,15.08824164,0.0001983,53.2155,188.6525,50.8292,91.8857,0.0035398,0.00056476,0.0,0 STARLINK-4200,1 52876U 22062AY  22287.91667824  .00056476  00000-0  35398-2 0  9992,2 52876  53.2155 188.6525 0001983  50.8292  91.8857 15.08824164  1304,6917.929,95.439,541.1659999999998,538.422,0.0
52876.0,STARLINK-4200,PAYLOAD,2022-10-15 06:00:00,15.0883638,0.0001926,53.2172,187.154,48.3888,105.9429,9.4799e-05,1.221e-05,0.0,0 STARLINK-4200,1 52876U 22062AY  22288.25001157  .00001221  00000-0  94799-4 0  9991,2 52876  53.2172 187.1540 0001926  48.3888 105.9429 15.08836380 19140,6917.891,95.438,541.089,538.424,0.0
52876.0,STARLINK-4200,PAYLOAD,2022-10-15 14:00:01,15.08846381,0.0001776,53.2127,185.6612,50.0961,115.887,0.001655,0.00026154,0.0,0 STARLINK-4200,1 52876U 22062AY  22288.58334491  .00026154  00000-0  16550-2 0  9996,2 52876  53.2127 185.6612 0001776  50.0961 115.8870 15.08846381  1309,6917.861,95.437,540.9540000000002,538.497,0.0
52876.0,STARLINK-4200,PAYLOAD,2022-10-15 22:00:01,15.0886774,0.0001803,53.2127,184.1659,46.6832,130.9754,-0.0052566,-0.00083048,0.0,0 STARLINK-4200,1 52876U 22062AY  22288.91668981 -.00083048  00000-0 -52566-2 0  9991,2 52876  53.2127 184.1659 0001803  46.6832 130.9754 15.08867740 19246,6917.795999999999,95.436,540.908,538.413,0.0
52876.0,STARLINK-4200,PAYLOAD,2022-10-16 14:00:01,15.08773625,0.0001751999999999,53.2122,181.1718,50.1808,150.5483,0.0036738,0.0005856,0.0,0 STARLINK-4200,1 52876U 22062AY  22289.58334491  .00058560  00000-0  36738-2 0  9993,2 52876  53.2122 181.1718 0001752  50.1808 150.5483 15.08773625 19346,6918.083000000001,95.442,541.16,538.736,0.0
52876.0,STARLINK-4200,PAYLOAD,2022-10-16 22:00:00,15.08818598,0.0001878,53.2133,179.6765,48.7097,163.5607,-0.00021819,-3.757e-05,0.0,0 STARLINK-4200,1 52876U 22062AY  22289.91667824 -.00003757  00000-0 -21819-3 0  9994,2 52876  53.2133 179.6765 0001878  48.7097 163.5607 15.08818598  1302,6917.946,95.439,541.11,538.512,0.0
52876.0,STARLINK-4200,PAYLOAD,2022-10-17 14:00:01,15.08819195,0.000179,53.2134,176.6818,52.5387,182.8908,0.0036934,0.00058951,0.0,0 STARLINK-4200,1 52876U 22062AY  22290.58334491  .00058951  00000-0  36934-2 0  9997,2 52876  53.2134 176.6818 0001790  52.5387 182.8908 15.08819195  1309,6917.944,95.439,541.047,538.571,0.0
52876.0,STARLINK-4200,PAYLOAD,2022-10-17 22:00:00,15.08876508,0.0001901,53.2145,175.1872,48.956,198.0731,-0.0030079,-0.0004789,0.0,0 STARLINK-4200,1 52876U 22062AY  22290.91667824 -.00047890  00000-0 -30079-2 0  9999,2 52876  53.2145 175.1872 0001901  48.9560 198.0731 15.08876508  1305,6917.769,95.435,540.9490000000002,538.319,0.0
52876.0,STARLINK-4200,PAYLOAD,2022-10-18 08:00:01,15.08866967,0.0001891,53.2158,173.3142,44.5726,306.9742,-0.0032652,-0.00051919,0.0,0 STARLINK-4200,1 52876U 22062AY  22291.33334491 -.00051919  00000-0 -32652-2 0  9993,2 52876  53.2158 173.3142 0001891  44.5726 306.9742 15.08866967 19605,6917.7980000000025,95.436,540.971,538.355,0.0
52876.0,STARLINK-4200,PAYLOAD,2022-10-18 14:00:01,15.08794474,0.000174,53.2137,172.1931,48.529,221.6794,0.0033944,0.00054081,0.0,0 STARLINK-4200,1 52876U 22062AY  22291.58334491  .00054081  00000-0  33944-2 0  9996,2 52876  53.2137 172.1931 0001740  48.5290 221.6794 15.08794474 19645,6918.02,95.44,541.0880000000002,538.681,0.0
52876.0,STARLINK-4200,PAYLOAD,2022-10-18 22:00:00,15.08830249,0.0001926,53.2138,170.6983,45.8186,235.9526,-0.00028581,-4.833e-05,0.0,0 STARLINK-4200,1 52876U 22062AY  22291.91667824 -.00004833  00000-0 -28581-3 0  9996,2 52876  53.2138 170.6983 0001926  45.8186 235.9526 15.08830249  1302,6917.91,95.438,541.1080000000002,538.443,0.0
52876.0,STARLINK-4200,PAYLOAD,2022-10-19 08:00:01,15.08854132,0.0001915,53.2141,168.8272,44.9965,341.2494,-0.0013638,-0.00021936,0.0,0 STARLINK-4200,1 52876U 22062AY  22292.33334491 -.00021936  00000-0 -13638-2 0  9993,2 52876  53.2141 168.8272 0001915  44.9965 341.2494 15.08854132 19759,6917.837,95.437,541.0269999999998,538.377,0.0
52876.0,STARLINK-4200,PAYLOAD,2022-10-19 14:00:01,15.08827405,0.0001837,53.2142,167.7039,49.6404,255.3135,0.0033996,0.00054215,0.0,0 STARLINK-4200,1 52876U 22062AY  22292.58334491  .00054215  00000-0  33996-2 0  9993,2 52876  53.2142 167.7039 0001837  49.6404 255.3135 15.08827405  1304,6917.919,95.438,541.055,538.513,0.0
52876.0,STARLINK-4200,PAYLOAD,2022-10-19 22:00:00,15.08836463,0.0002184,53.2173,166.2045,50.554,266.0692,3.0411e-05,1.96e-06,0.0,0 STARLINK-4200,1 52876U 22062AY  22292.91667824  .00000196  00000-0  30411-4 0  9999,2 52876  53.2173 166.2045 0002184  50.5540 266.0692 15.08836463  1308,6917.891,95.438,541.2669999999998,538.245,0.0
52876.0,STARLINK-4200,PAYLOAD,2022-10-20 14:00:01,15.08829852,0.0001793,53.215,163.2137,48.824,290.9487,0.002552,0.0004055,0.0,0 STARLINK-4200,1 52876U 22062AY  22293.58334491  .00040550  00000-0  25520-2 0  9995,2 52876  53.2150 163.2137 0001793  48.8240 290.9487 15.08829852  1306,6917.911,95.438,541.0169999999998,538.536,0.0
52876.0,STARLINK-4200,PAYLOAD,2022-10-20 22:00:00,15.08848121,0.0001972,53.2154,161.7196,43.6225,307.7566,-0.0019871,-0.00031781,0.0,0 STARLINK-4200,1 52876U 22062AY  22293.91667824 -.00031781  00000-0 -19871-2 0  9991,2 52876  53.2154 161.7196 0001972  43.6225 307.7566 15.08848121  1308,6917.856,95.437,541.085,538.356,0.0
52876.0,STARLINK-4200,PAYLOAD,2022-10-21 06:00:00,15.0885378,0.0001914,53.2152,160.2222,41.3957,321.5736,-0.0014609999999999,-0.00023474,0.0,0 STARLINK-4200,1 52876U 22062AY  22294.25001157 -.00023474  00000-0 -14610-2 0  9996,2 52876  53.2152 160.2222 0001914  41.3957 321.5736 15.08853780 20045,6917.8380000000025,95.437,541.0269999999998,538.379,0.0
52876.0,STARLINK-4200,PAYLOAD,2022-10-21 14:00:01,15.088282,0.0001768,53.2153,158.7246,48.1907,326.3757,0.0027500999999999,0.00043738,0.0,0 STARLINK-4200,1 52876U 22062AY  22294.58334491  .00043738  00000-0  27501-2 0  9998,2 52876  53.2153 158.7246 0001768  48.1907 326.3757 15.08828200  1304,6917.916,95.438,541.005,538.558,0.0
52876.0,STARLINK-4200,PAYLOAD,2022-10-21 22:00:00,15.08843063,0.0002028,53.215,157.2307,46.9907,339.1999,-0.00096654,-0.00015639,0.0,0 STARLINK-4200,1 52876U 22062AY  22294.91667824 -.00015639  00000-0 -96654-3 0  9991,2 52876  53.2150 157.2307 0002028  46.9907 339.1999 15.08843063 20146,6917.871,95.437,541.139,538.3330000000002,0.0
52876.0,STARLINK-4200,PAYLOAD,2022-10-22 14:00:01,15.08847688,0.0001817,53.2149,154.2362,51.8239,357.5607,0.00033643,5.071e-05,0.0,0 STARLINK-4200,1 52876U 22062AY  22295.58334491  .00005071  00000-0  33643-3 0  9992,2 52876  53.2149 154.2362 0001817  51.8239 357.5607 15.08847688 20248,6917.857,95.437,540.979,538.465,0.0
